[{"OBJECT_NAME":"KUIPER-00023","OBJECT_ID":"2025-088P","EPOCH":"2026-03-09T12:21:02.638368","MEAN_MOTION":14.79934157,"ECCENTRICITY":0.00084141,"INCLINATION":51.899,"RA_OF_ASC_NODE":106.3195,"ARG_OF_PERICENTER":96.3208,"MEAN_ANOMALY":263.8713,"EPHEMERIS_TYPE":0,"CLASSIFICATION_TYPE":"U","NORAD_CAT_ID":63737,"ELEMENT_SET_NO":999,"REV_AT_EPOCH":4773,"BSTAR":0.00062479522,"MEAN_MOTION_DOT":4.546e-5,"MEAN_MOTION_DDOT":0},{"OBJECT_NAME":"COSMOS 2251 DEB","OBJECT_ID":"1993-036AKJ","EPOCH":"2026-02-08T11:39:10.701792","MEAN_MOTION":14.69247187,"ECCENTRICITY":0.00699538,"INCLINATION":74.0147,"RA_OF_ASC_NODE":95.6951,"ARG_OF_PERICENTER":224.5568,"MEAN_ANOMALY":134.9966,"EPHEMERIS_TYPE":0,"CLASSIFICATION_TYPE":"U","NORAD_CAT_ID":35440,"ELEMENT_SET_NO":999,"REV_AT_EPOCH":69613,"BSTAR":0.00049855646,"MEAN_MOTION_DOT":3.018e-5,"MEAN_MOTION_DDOT":0}]
